[{"OBJECT_NAME":"DONGPO 05","OBJECT_ID":"2022-098F","EPOCH":"2026-03-09T22:38:51.974304","MEAN_MOTION":15.61813962,"ECCENTRICITY":9.343e-5,"INCLINATION":97.5362,"RA_OF_ASC_NODE":193.3914,"ARG_OF_PERICENTER":313.3039,"MEAN_ANOMALY":46.8141,"EPHEMERIS_TYPE":0,"CLASSIFICATION_TYPE":"U","NORAD_CAT_ID":53449,"ELEMENT_SET_NO":999,"REV_AT_EPOCH":19929,"BSTAR":0.00094963303,"MEAN_MOTION_DOT":0.00082798,"MEAN_MOTION_DDOT":0},{"OBJECT_NAME":"STARLINK-31725","OBJECT_ID":"2024-074E","EPOCH":"2026-03-09T22:00:01.999584","MEAN_MOTION":15.54053512,"ECCENTRICITY":0.00145121,"INCLINATION":42.9967,"RA_OF_ASC_NODE":323.6611,"ARG_OF_PERICENTER":238.6665,"MEAN_ANOMALY":359.4797,"EPHEMERIS_TYPE":0,"CLASSIFICATION_TYPE":"U","NORAD_CAT_ID":59538,"ELEMENT_SET_NO":999,"REV_AT_EPOCH":589,"BSTAR":0.0045341754,"MEAN_MOTION_DOT":0.00314571,"MEAN_MOTION_DDOT":0}]
